{
    "links": {
        "self": "http://www.neowsapp.com/rest/v1/neo/3599389?api_key=iIulBulltgU6a56xZRHN4H3l9WmuAYTsLGpBGhQ2"
    },
    "id": "3599389",
    "neo_reference_id": "3599389",
    "name": "(2012 CP46)",
    "designation": "2012 CP46",
    "nasa_jpl_url": "http://ssd.jpl.nasa.gov/sbdb.cgi?sstr=3599389",
    "absolute_magnitude_h": 25.8,
    "estimated_diameter": {
        "kilometers": {
            "estimated_diameter_min": 0.0183888672,
            "estimated_diameter_max": 0.0411187571
        },
        "meters": {
            "estimated_diameter_min": 18.388867207,
            "estimated_diameter_max": 41.1187571041
        },
        "miles": {
            "estimated_diameter_min": 0.0114263088,
            "estimated_diameter_max": 0.0255500032
        },
        "feet": {
            "estimated_diameter_min": 60.3309310875,
            "estimated_diameter_max": 134.9040630575
        }
    },
    "is_potentially_hazardous_asteroid": false,
    "close_approach_data": [
        {
            "close_approach_date": "2012-02-06",
            "close_approach_date_full": "2012-Feb-06 03:07",
            "epoch_date_close_approach": 1328497620000,
            "relative_velocity": {
                "kilometers_per_second": "3.8744715021",
                "kilometers_per_hour": "13948.0974076662",
                "miles_per_hour": "8666.8053031135"
            },
            "miss_distance": {
                "astronomical": "0.0897063403",
                "lunar": "34.8957663767",
                "kilometers": "13419877.434375161",
                "miles": "8338725.1658967818"
            },
            "orbiting_body": "Earth"
        }
    ],
    "orbital_data": {
        "orbit_id": "6",
        "orbit_determination_date": "2017-04-06 08:50:57",
        "first_observation_date": "2012-02-13",
        "last_observation_date": "2012-02-22",
        "data_arc_in_days": 9,
        "observations_used": 12,
        "orbit_uncertainty": "8",
        "minimum_orbit_intersection": ".0867825",
        "jupiter_tisserand_invariant": "5.448",
        "epoch_osculation": "2455971.5",
        "eccentricity": ".06935705183977316",
        "semi_major_axis": "1.152001236853707",
        "inclination": "7.347760515484577",
        "ascending_node_longitude": "141.9307708399218",
        "orbital_period": "451.6248651760048",
        "perihelion_distance": "1.072101827349762",
        "perihelion_argument": "347.66950385",
        "aphelion_distance": "1.231900646357653",
        "perihelion_time": "2455957.246878432313",
        "mean_anomaly": "11.36147311633881",
        "mean_motion": ".7971217436393868",
        "equinox": "J2000",
        "orbit_class": {
            "orbit_class_type": "AMO",
            "orbit_class_description": "Near-Earth asteroid orbits similar to that of 1221 Amor",
            "orbit_class_range": "1.017 AU < q (perihelion) < 1.3 AU"
        }
    },
    "is_sentry_object": false
}